{"epoch":1784710044,"count":18256,"objects":[{"id":"52757","name":"HAWK-5A","type":"PAYLOAD","l1":"1 52757U 22057AB  26201.95841727  .00013382  00000-0  22047-3 0  9991","l2":"2 52757  97.6637   3.0231 0002943 309.8300  50.2692 15.52455151231583"},{"id":"55324","name":"HAWK-6B","type":"PAYLOAD","l1":"1 55324U 23011A   26202.21396356  .00003272  00000-0  14359-3 0  9992","l2":"2 55324  40.4981 153.5607 0004584 270.8827  89.1457 15.23188223193034"},{"id":"55326","name":"HAWK-6C","type":"PAYLOAD","l1":"1 55326U 23011C   26202.54115568  .00003600  00000-0  15715-3 0  9996","l2":"2 55326  40.4970 148.4867 0005082 267.3990  92.6238 15.23191156193092"},{"id":"55327","name":"HAWK-6A","type":"PAYLOAD","l1":"1 55327U 23011D   26202.21336814  .00003239  00000-0  14221-3 0  9999","l2":"2 55327  40.4979 152.0272 0004771 262.7160  97.3107 15.23188189193049"},{"id":"56191","name":"HAWK-7A","type":"PAYLOAD","l1":"1 56191U 23054P   26202.63277282  .00004550  00000-0  17089-3 0  9997","l2":"2 56191  97.2651  89.0940 0000980 285.0813  75.0318 15.27677004182282"},{"id":"56193","name":"HAWK-7B","type":"PAYLOAD","l1":"1 56193U 23054R   26202.23969811  .00004049  00000-0  15238-3 0  9998","l2":"2 56193  97.2682  86.9863 0000702   2.2557 357.8685 15.27674337182222"},{"id":"56200","name":"HAWK-7C","type":"PAYLOAD","l1":"1 56200U 23054Y   26202.56707573  .00004524  00000-0  16992-3 0  9994","l2":"2 56200  97.2656  88.0639 0000340 296.0111  64.1094 15.27677282182272"}]}